NORAD_CAT_ID,OBJECT_NAME,OBJECT_TYPE,EPOCH,MEAN_MOTION,ECCENTRICITY,INCLINATION,RA_OF_ASC_NODE,ARG_OF_PERICENTER,MEAN_ANOMALY,BSTAR,MEAN_MOTION_DOT,MEAN_MOTION_DDOT,TLE_LINE0,TLE_LINE1,TLE_LINE2,SEMIMAJOR_AXIS,PERIOD,APOGEE,PERIGEE,DECAYED
52451.0,STARLINK-3870,PAYLOAD,2024-02-08 20:55:46,15.0884588,0.0001288,53.2157,240.0767,86.3882,273.7258,0.00013896,1.925e-05,0.0,0 STARLINK-3870,1 52451U 22049A   24039.87206296  .00001925  00000-0  13896-3 0  9999,2 52451  53.2157 240.0767 0001288  86.3882 273.7258 15.08845880 97403,6917.862,95.437,540.618,538.836,0.0
52451.0,STARLINK-3870,PAYLOAD,2024-02-09 12:49:38,15.08839462,0.0001323,53.2159,237.1036,85.8429,274.2715,7.5644e-05,9.16e-06,0.0,0 STARLINK-3870,1 52451U 22049A   24040.53446904  .00000916  00000-0  75644-4 0  9995,2 52451  53.2159 237.1036 0001323  85.8429 274.2715 15.08839462 97506,6917.882,95.438,540.662,538.832,0.0
52451.0,STARLINK-3870,PAYLOAD,2024-02-09 19:11:10,15.08838944,0.0001325,53.2157,235.9137,85.6667,274.4476,5.8765e-05,6.47e-06,0.0,0 STARLINK-3870,1 52451U 22049A   24040.79942990  .00000647  00000-0  58765-4 0  9995,2 52451  53.2157 235.9137 0001325  85.6667 274.4476 15.08838944 97708,6917.884,95.438,540.665,538.832,0.0
52451.0,STARLINK-3870,PAYLOAD,2024-02-10 19:01:57,15.08849343,0.0001373,53.2163,231.453,87.5433,272.5716,8.4671e-05,1.06e-05,0.0,0 STARLINK-3870,1 52451U 22049A   24041.79302204  .00001060  00000-0  84671-4 0  9999,2 52451  53.2163 231.4530 0001373  87.5433 272.5716 15.08849343 97855,6917.852,95.437,540.667,538.767,0.0
52451.0,STARLINK-3870,PAYLOAD,2024-02-10 22:12:42,15.08854394,0.0001356,53.216,230.858,76.5875,283.5268,0.00011788,1.589e-05,0.0,0 STARLINK-3870,1 52451U 22049A   24041.92549768  .00001589  00000-0  11788-3 0  9996,2 52451  53.2160 230.8580 0001356  76.5875 283.5268 15.08854394 97710,6917.836,95.437,540.639,538.763,0.0
52451.0,STARLINK-3870,PAYLOAD,2024-02-11 12:31:12,15.08839404,9.4e-05,53.2168,228.1811,87.2443,272.8657,3.218e-05,2.24e-06,0.0,0 STARLINK-3870,1 52451U 22049A   24042.52166722  .00000224  00000-0  32180-4 0  9993,2 52451  53.2168 228.1811 0000940  87.2443 272.8657 15.08839404 97968,6917.882,95.438,540.397,539.097,0.0
52451.0,STARLINK-3870,PAYLOAD,2024-02-11 18:52:44,15.08843585,0.0001335,53.216,226.9918,84.4748,275.6397,8.9714e-05,1.14e-05,0.0,0 STARLINK-3870,1 52451U 22049A   24042.78662481  .00001140  00000-0  89714-4 0  9997,2 52451  53.2160 226.9918 0001335  84.4748 275.6397 15.08843585 97844,6917.869,95.437,540.658,538.811,0.0
52451.0,STARLINK-3870,PAYLOAD,2024-02-12 17:08:07,15.08851946,0.0001314,53.2159,222.8292,81.3558,278.7583,2.5037e-05,1.11e-06,0.0,0 STARLINK-3870,1 52451U 22049A   24043.71398071  .00000111  00000-0  25037-4 0  9997,2 52451  53.2159 222.8292 0001314  81.3558 278.7583 15.08851946 98149,6917.844,95.437,540.618,538.8,0.0
52451.0,STARLINK-3870,PAYLOAD,2024-02-12 21:54:16,15.08857482,0.0001466,53.2164,221.9345,104.245,255.8705,0.00011034,1.469e-05,0.0,0 STARLINK-3870,1 52451U 22049A   24043.91269098  .00001469  00000-0  11034-3 0  9993,2 52451  53.2164 221.9345 0001466 104.2450 255.8705 15.08857482 98017,6917.827,95.436,540.706,538.678,0.0
52451.0,STARLINK-3870,PAYLOAD,2024-02-13 12:12:46,15.08835231,0.000207,53.215,219.2595,60.6945,299.4254,-1.5792e-06,-3.13e-06,0.0,0 STARLINK-3870,1 52451U 22049A   24044.50886959 -.00000313  00000-0 -15792-5 0  9996,2 52451  53.2150 219.2595 0002070  60.6945 299.4254 15.08835231 98263,6917.895,95.438,541.192,538.328,0.0
52451.0,STARLINK-3870,PAYLOAD,2024-02-13 18:34:19,15.08832988,0.0001191,53.2157,218.0708,93.4022,266.7107,2.3786e-05,9.1e-07,0.0,0 STARLINK-3870,1 52451U 22049A   24044.77383428  .00000091  00000-0  23786-4 0  9990,2 52451  53.2157 218.0708 0001191  93.4022 266.7107 15.08832988 98301,6917.902,95.438,540.591,538.943,0.0
52451.0,STARLINK-3870,PAYLOAD,2024-02-14 12:03:33,15.08835501,0.0001185,53.2153,214.8001,98.9774,261.1352,-0.00017409,-3.057e-05,0.0,0 STARLINK-3870,1 52451U 22049A   24045.50247325 -.00003057  00000-0 -17409-3 0  9998,2 52451  53.2153 214.8001 0001185  98.9774 261.1352 15.08835501 98253,6917.894,95.438,540.579,538.939,0.0
52451.0,STARLINK-3870,PAYLOAD,2024-02-14 18:25:06,15.0883539,0.0001629,53.2151,213.6108,125.4716,234.6428,-3.0714e-05,-7.77e-06,0.0,0 STARLINK-3870,1 52451U 22049A   24045.76743426 -.00000777  00000-0 -30714-4 0  9990,2 52451  53.2151 213.6108 0001629 125.4716 234.6428 15.08835390 98290,6917.894,95.438,540.886,538.633,0.0
52451.0,STARLINK-3870,PAYLOAD,2024-02-15 18:15:53,15.08847773,0.0001137,53.2151,209.15,90.5482,269.564,0.00036734,5.564e-05,0.0,0 STARLINK-3870,1 52451U 22049A   24046.76103370  .00005564  00000-0  36734-3 0  9993,2 52451  53.2151 209.1500 0001137  90.5482 269.5640 15.08847773 98608,6917.857,95.437,540.508,538.935,0.0
52451.0,STARLINK-3870,PAYLOAD,2024-02-16 03:48:12,15.08844251,0.0001097,53.2154,207.3657,91.2695,268.8423,0.00024588,3.628e-05,0.0,0 STARLINK-3870,1 52451U 22049A   24047.15847527  .00003628  00000-0  24588-3 0  9999,2 52451  53.2154 207.3657 0001097  91.2695 268.8423 15.08844251 98668,6917.867,95.437,540.491,538.974,0.0
52451.0,STARLINK-3870,PAYLOAD,2024-02-16 14:55:54,15.08836844,0.0001416,53.2158,205.285,96.1057,264.0096,5.0307e-05,5.13e-06,0.0,0 STARLINK-3870,1 52451U 22049A   24047.62215812  .00000513  00000-0  50307-4 0  9996,2 52451  53.2158 205.2850 0001416  96.1057 264.0096 15.08836844 98578,6917.89,95.438,540.735,538.775,0.0
52451.0,STARLINK-3870,PAYLOAD,2024-02-16 19:42:03,15.08845493,0.0001258,53.2154,204.3918,88.8397,271.2739,0.00018042,2.585e-05,0.0,0 STARLINK-3870,1 52451U 22049A   24047.82087543  .00002585  00000-0  18042-3 0  9996,2 52451  53.2154 204.3918 0001258  88.8397 271.2739 15.08845493 98606,6917.864,95.437,540.599,538.858,0.0
52451.0,STARLINK-3870,PAYLOAD,2024-02-17 14:46:41,15.08845335,0.0001476,53.2166,200.8231,103.5781,256.5376,8.774e-05,1.109e-05,0.0,0 STARLINK-3870,1 52451U 22049A   24048.61575509  .00001109  00000-0  87740-4 0  9991,2 52451  53.2166 200.8231 0001476 103.5781 256.5376 15.08845335 98723,6917.864,95.437,540.75,538.708,0.0
52451.0,STARLINK-3870,PAYLOAD,2024-02-17 19:32:50,15.08850263,0.0001226,53.2162,199.9277,99.4286,260.6845,0.00022522,3.299e-05,0.0,0 STARLINK-3870,1 52451U 22049A   24048.81447263  .00003299  00000-0  22522-3 0  9996,2 52451  53.2162 199.9277 0001226  99.4286 260.6845 15.08850263 98917,6917.849,95.437,540.562,538.866,0.0
52451.0,STARLINK-3870,PAYLOAD,2024-02-18 14:37:28,15.0884627,0.0001348,53.2169,196.3593,105.6178,254.4963,0.00026682,3.962e-05,0.0,0 STARLINK-3870,1 52451U 22049A   24049.60935358  .00003962  00000-0  26682-3 0  9999,2 52451  53.2169 196.3593 0001348 105.6178 254.4963 15.08846270 98871,6917.861,95.437,540.659,538.794,0.0
52451.0,STARLINK-3870,PAYLOAD,2024-02-18 16:12:51,15.08845544,0.0001219,53.2169,196.0621,105.6928,254.4199,0.00034379,5.189e-05,0.0,0 STARLINK-3870,1 52451U 22049A   24049.67559422  .00005189  00000-0  34379-3 0  9995,2 52451  53.2169 196.0621 0001219 105.6928 254.4199 15.08845544 99044,6917.863,95.437,540.572,538.885,0.0
52451.0,STARLINK-3870,PAYLOAD,2024-02-19 11:17:29,15.08841874,0.0001359,53.2159,192.4956,90.0155,270.0993,-2.9847e-05,-7.63e-06,0.0,0 STARLINK-3870,1 52451U 22049A   24050.47047543 -.00000763  00000-0 -29847-4 0  9991,2 52451  53.2159 192.4956 0001359  90.0155 270.0993 15.08841874 99169,6917.875,95.437,540.68,538.8,0.0
52451.0,STARLINK-3870,PAYLOAD,2024-02-19 14:28:15,15.08829035,0.0001528,53.2153,191.9,100.1121,260.0043,0.00023139,3.395e-05,0.0,0 STARLINK-3870,1 52451U 22049A   24050.60296168  .00003395  00000-0  23139-3 0  9994,2 52451  53.2153 191.9000 0001528 100.1121 260.0043 15.08829035 99026,6917.914,95.438,540.836,538.722,0.0
52451.0,STARLINK-3870,PAYLOAD,2024-02-19 19:14:24,15.0883521,0.0001472,53.215,191.0082,96.0198,264.0962,3.3651e-05,2.48e-06,0.0,0 STARLINK-3870,1 52451U 22049A   24050.80167817  .00000248  00000-0  33651-4 0  9999,2 52451  53.2150 191.0082 0001472  96.0198 264.0962 15.08835210 99058,6917.895,95.438,540.778,538.742,0.0
52451.0,STARLINK-3870,PAYLOAD,2024-02-20 14:19:03,15.08836696,0.0001365,53.217,187.4392,98.5051,261.6095,-2.4583e-05,-6.79e-06,0.0,0 STARLINK-3870,1 52451U 22049A   24051.59656348 -.00000679  00000-0 -24583-4 0  9992,2 52451  53.2170 187.4392 0001365  98.5051 261.6095 15.08836696 99171,6917.89,95.438,540.7,538.811,0.0
52451.0,STARLINK-3870,PAYLOAD,2024-02-20 15:54:26,15.08837514,0.0001149,53.2165,187.1452,84.7197,275.3926,-3.4241e-05,-8.33e-06,0.0,0 STARLINK-3870,1 52451U 22049A   24051.66280289 -.00000833  00000-0 -34241-4 0  9991,2 52451  53.2165 187.1452 0001149  84.7197 275.3926 15.08837514 99341,6917.888,95.438,540.548,538.958,0.0
52451.0,STARLINK-3870,PAYLOAD,2024-02-21 14:09:49,15.08837008,0.0001298,53.217,182.9835,93.609,266.5051,0.0001539,2.162e-05,0.0,0 STARLINK-3870,1 52451U 22049A   24052.59016197  .00002162  00000-0  15390-3 0  9997,2 52451  53.2170 182.9835 0001298  93.6090 266.5051 15.08837008 99328,6917.89,95.438,540.652,538.857,0.0
52451.0,STARLINK-3870,PAYLOAD,2024-02-21 15:45:12,15.08840639,0.0001262,53.217,182.6862,91.755,268.3587,0.00017576,2.51e-05,0.0,0 STARLINK-3870,1 52451U 22049A   24052.65639963  .00002510  00000-0  17576-3 0  9991,2 52451  53.2170 182.6862 0001262  91.7550 268.3587 15.08840639 99335,6917.878,95.438,540.616,538.87,0.0
52451.0,STARLINK-3870,PAYLOAD,2024-02-22 12:25:14,15.08839357,0.0001386,53.2177,178.8239,101.1621,258.9527,9.244e-05,1.184e-05,0.0,0 STARLINK-3870,1 52451U 22049A   24053.51752524  .00001184  00000-0  92440-4 0  9996,2 52451  53.2177 178.8239 0001386 101.1621 258.9527 15.08839357 99625,6917.882,95.438,540.706,538.789,0.0
52451.0,STARLINK-3870,PAYLOAD,2024-02-22 14:00:37,15.08840984,0.0001396,53.2174,178.5266,101.4822,258.6327,0.00010606,1.4e-05,0.0,0 STARLINK-3870,1 52451U 22049A   24053.58376394  .00001400  00000-0  10606-3 0  9994,2 52451  53.2174 178.5266 0001396 101.4822 258.6327 15.08840984 99472,6917.877,95.437,540.708,538.777,0.0
